[{"OBJECT_NAME":"STARLINK-35547","OBJECT_ID":"2025-237F","EPOCH":"2026-03-09T05:51:20.794752","MEAN_MOTION":15.30197249,"ECCENTRICITY":0.00012505,"INCLINATION":53.162,"RA_OF_ASC_NODE":41.6006,"ARG_OF_PERICENTER":92.6754,"MEAN_ANOMALY":267.439,"EPHEMERIS_TYPE":0,"CLASSIFICATION_TYPE":"U","NORAD_CAT_ID":66119,"ELEMENT_SET_NO":999,"REV_AT_EPOCH":2254,"BSTAR":0.00054465027,"MEAN_MOTION_DOT":0.00015805,"MEAN_MOTION_DDOT":0},{"OBJECT_NAME":"FENGYUN 1C DEB","OBJECT_ID":"1999-025ETT","EPOCH":"2026-03-07T08:30:03.670560","MEAN_MOTION":15.28888299,"ECCENTRICITY":0.00158464,"INCLINATION":99.1103,"RA_OF_ASC_NODE":112.0072,"ARG_OF_PERICENTER":201.0032,"MEAN_ANOMALY":159.0553,"EPHEMERIS_TYPE":0,"CLASSIFICATION_TYPE":"U","NORAD_CAT_ID":38726,"ELEMENT_SET_NO":999,"REV_AT_EPOCH":71135,"BSTAR":0.013792546,"MEAN_MOTION_DOT":0.00409659,"MEAN_MOTION_DDOT":0}]
